A/2021 E2,e,167.4890,190.8076,342.3301,216.5741,0.0003092,0.98945757,0.0000,12/10.1441/2020,2000,g 15.0,2.0
# From MPEC 2023-J29
C/2021 E3 (ZTF),h,06/11.8368/2022,112.5372,104.4817,228.8388,1.000650,1.777153,2000,8.5,4.0
# From MPEC 2023-SQ0
A/2021 E4,e,116.3622,171.1656,48.2641,547.6229,0.0000769,0.99146018,0.0000,04/25.0778/2022,2000,g 13.5,22.0
# From MPEC 2022-QD9
C/2021 F1 (Lemmon-PANSTARRS),e,107.3179,203.4700,146.8638,241.1636,0.0002632,0.99586651,0.0000,04/06.8094/2022,2000,g 13.5,4.0
# From MPEC 2021-J72
C/2021 G1 (Leonard),e,131.5472,270.6985,107.4453,73.02601,0.0015794,0.95310989,1.4094,12/31.0/2023,2000,g 14.0,4.0
# From MPEC 2023-Y97
C/2021 G2 (ATLAS),e,48.4748,221.0938,343.2979,23322,0.0000003,0.99978638,0.0000,09/09.3703/2024,2000,g  5.5,4.0
# From MPEC 2022-X67
C/2021 G3 (PANSTARRS),e,102.8703,147.3913,10.5844,19028,0.0000004,0.99972777,0.0000,10/17.9788/2021,2000,g 10.5,4.0
# From MPEC 2021-Y10
P/2021 HS (PANSTARRS),e,12.1578,262.3695,46.1371,4.194534,0.1147304,0.80963005,100.6206,12/31.0/2023,2000,g 22.0,4.0
# From MPEC 2022-C56
C/2021 J1 (Maury-Attard),e,92.7165,88.3965,147.2960,26.33283,0.0072939,0.93394509,7.6194,12/31.0/2023,2000,g 15.5,4.0
# From MPEC 2023-XP6
C/2021 J2 (PANSTARRS),e,156.2129,23.3336,171.9767,116.0290,0.0007886,0.95946491,0.6546,12/31.0/2023,2000,g 12.0,4.0
# From MPEC 2023-VM5
P/2021 J3 (ATLAS),e,14.5269,111.1207,125.9035,8.918649,0.0370046,0.44899590,60.7739,12/31.0/2023,2000,g  7.0,4.0
# From MPEC 2022-O08
C/2021 K1 (ATLAS),e,16.2741,140.9130,184.2737,12.65366,0.0218968,0.80243154,21.2641,12/31.0/2023,2000,g 11.0,4.0
# From MPEC 2022-O01
C/2021 K2 (MASTER),h,09/09.7295/2021,100.8582,282.3124,343.3497,1.000966,5.469060,2000,8.0,4.0
# From MPEC 2022-L66
C/2021 K3 (Catalina),h,02/03.9483/2022,134.7754,114.5736,182.0526,1.004402,5.232023,2000,10.0,4.0
# From MPEC 2021-W31
P/2021 L2 (Leonard),e,21.0657,266.6552,51.5049,4.048725,0.1209837,0.52089124,107.6795,12/31.0/2023,2000,g 17.0,4.0
# From MPEC 2023-M14
C/2021 L3 (Borisov),h,02/14.4832/2022,78.5695,344.9898,91.6249,1.004218,8.458382,2000,10.1,4.0
# From MPEC 2022-TA0
P/2021 N1 (ZTF),e,11.4917,301.1545,21.2373,2.978512,0.1917366,0.67609953,179.8132,12/31.0/2023,2000,g 19.0,4.0
# From MPEC 2023-W26
P/2021 N2 (Fuls),e,13.0612,221.7318,177.5179,6.941633,0.0538904,0.45260878,41.8631,12/31.0/2023,2000,g  9.5,4.0
# From MPEC 2022-YB4
C/2021 N3 (PANSTARRS),e,26.7454,337.4979,304.7359,147.6568,0.0005493,0.96128004,0.6753,12/31.0/2023,2000,g  8.5,4.0
# From MPEC 2022-A21
C/2021 O1 (Nishimura),e,27.5963,41.5966,74.3968,2594,0.0000075,0.99969765,0.0000,08/14.1784/2021,2000,g 10.5,4.0
# From MPEC 2022-L66
C/2021 O3 (PANSTARRS),h,04/21.0847/2022,56.7969,188.9849,299.9563,1.000046,0.286404,2000,10.5,4.0
# From MPEC 2022-CN4
C/2021 P1 (PANSTARRS),e,51.6388,359.7009,40.4690,2327,0.0000088,0.99811989,0.0000,06/02.5111/2022,2000,g 11.0,4.0
# From MPEC 2023-R20
C/2021 P2 (PANSTARRS),e,150.0633,32.0811,76.7131,3880,0.0000041,0.99869358,0.0000,01/22.9172/2023,2000,g  9.0,4.0
# From MPEC 2021-W31
P/2021 P3 (PANSTARRS),e,27.1613,358.2427,334.0916,4.412414,0.1063383,0.33881151,100.5068,12/31.0/2023,2000,g 14.0,4.0
# From MPEC 2023-A50
C/2021 P4 (ATLAS),e,56.3186,348.0768,175.7979,300.1060,0.0001896,0.99640185,0.0000,07/30.3394/2022,2000,g  9.5,4.0
# From MPEC 2023-E68
P/2021 PE20 (ATLAS),e,20.0033,99.6282,210.4714,3.745922,0.1359459,0.67007996,127.4259,12/31.0/2023,2000,g 17.0,4.0
# From MPEC 2023-FK0
C/2021 Q3 (ATLAS),e,77.7463,307.9152,114.1118,75.68972,0.0014967,0.93122792,1.0533,12/31.0/2023,2000,g  8.0,4.0
# From MPEC 2023-Y97
C/2021 Q4 (Fuls),h,06/11.1883/2023,71.4801,183.3297,147.0498,1.003003,7.564971,2000,6.0,4.0
# From MPEC 2022-C56
P/2021 Q5 (ATLAS),e,10.7388,239.7578,180.9261,3.286824,0.1654015,0.62464539,140.9568,12/31.0/2023,2000,g 15.0,4.0
# From MPEC 2023-XP6
C/2021 Q6 (PANSTARRS),h,03/24.8385/2024,161.8473,133.5348,141.0092,1.000608,8.707877,2000,6.0,4.0
# From MPEC 2023-FK0
C/2021 QM45 (PANSTARRS),e,22.8185,354.5947,72.8439,382.0961,0.0001320,0.99273943,0.0000,08/13.5954/2022,2000,g 11.0,4.0
# From MPEC 2022-X67
P/2021 R1 (PANSTARRS),e,5.5201,143.2784,220.2842,8.311185,0.0411348,0.41213517,30.6855,12/31.0/2023,2000,g 11.0,4.0
# From MPEC 2022-X67
C/2021 R2 (PANSTARRS),e,134.4830,16.3026,32.4849,3416,0.0000049,0.99785857,0.0000,12/27.4871/2021,2000,g  7.5,4.0
# From MPEC 2021-W31
P/2021 R3 (PANSTARRS),e,19.9309,304.1965,2.7271,3.771479,0.1345664,0.33100291,127.7602,12/31.0/2023,2000,g 16.0,4.0
# From MPEC 2021-W31
P/2021 R4 (Wierzchos),e,21.0294,321.2969,56.6964,5.624369,0.0738913,0.58590601,59.7001,12/31.0/2023,2000,g 16.0,4.0
# From MPEC 2022-Y15
P/2021 R5 (Rankin),e,7.8545,219.9544,167.5104,4.795195,0.0938631,0.30657264,67.3304,12/31.0/2023,2000,g 12.0,4.0
# From MPEC 2021-W31
P/2021 R6 (Groeller),e,34.9197,176.1573,220.7984,6.283645,0.0625730,0.59342417,49.4212,12/31.0/2023,2000,g 14.5,4.0
# From MPEC 2022-X67
C/2021 R7 (PANSTARRS),e,158.8607,170.1628,140.2959,860.7495,0.0000390,0.99343474,0.0000,04/16.5356/2021,2000,g 10.5,4.0
# From MPEC 2021-Y10
P/2021 R8 (Sheppard),e,2.2033,167.0745,190.8255,3.018698,0.1879206,0.29318208,153.0743,12/31.0/2023,2000,g 18.5,4.0
# From MPEC 2023-J29
C/2021 S1 (ATLAS),h,03/01.3813/2022,52.0589,299.8736,148.2212,1.002433,6.120200,2000,7.0,4.0
# From MPEC 2023-Y97
C/2021 S3 (PANSTARRS),h,02/14.7125/2024,58.5332,215.6208,6.8568,1.000274,1.320196,2000,5.5,4.0
# From MPEC 2023-Y97
C/2021 S4 (Tsuchinshan),e,17.4787,5.4886,72.8923,163.8751,0.0004698,0.95918067,359.9988,12/31.0/2023,2000,g  6.5,4.0
# From MPEC 2022-OB6
C/2021 T1 (Lemmon),e,140.3601,56.8453,51.5495,1704,0.0000140,0.99820403,0.0000,10/14.2937/2021,2000,g 12.5,4.0
# From MPEC 2023-A50
C/2021 T2 (Fuls),h,06/07.9949/2022,117.5398,223.2345,263.5930,1.000474,1.247172,2000,12.0,4.0
# From MPEC 2023-Y97
C/2021 T4 (Lemmon),e,160.7776,257.8854,329.8211,24782,0.0000003,0.99994015,0.0000,07/31.5396/2023,2000,g  7.5,4.0
# From MPEC 2022-ED3
P/2021 U1 (Wierzchos),e,30.5519,246.7963,145.1401,8.530944,0.0395556,0.71304156,32.4686,12/31.0/2023,2000,g 14.5,4.0
# From MPEC 2022-L66
P/2021 U3 (Attard-Maury),e,69.9582,75.1004,335.2597,4.194427,0.1147348,0.54987787,91.4520,12/31.0/2023,2000,g 15.5,4.0
# From MPEC 2021-W31
C/2021 U4 (Leonard),e,152.8878,241.8084,237.3257,45.10040,0.0032541,0.96033634,2.4047,12/31.0/2023,2000,g 17.0,4.0
# From MPEC 2022-WQ9
C/2021 U5 (Catalina),e,39.0468,182.7424,321.4277,217.0657,0.0003082,0.98912246,0.0000,01/26.6263/2022,2000,g 13.0,4.0
# From MPEC 2022-CN4
C/2021 V1 (Rankin),e,71.4532,207.6685,195.1536,657.0668,0.0000585,0.99541101,0.0000,04/30.5415/2022,2000,g 13.0,4.0
# From MPEC 2023-KD6
P/2021 V2 (Fuls),e,12.6947,232.2763,259.8444,9.071517,0.0360732,0.61455260,12.3914,12/31.0/2023,2000,g 10.0,4.0
# From MPEC 2023-Y97
C/2021 X1 (Maury-Attard),h,05/27.1422/2023,140.0982,10.5920,334.5618,1.000404,3.233301,2000,7.0,4.0
# From MPEC 2023-A50
A/2021 X2,h,07/08.0766/2022,137.1613,228.8224,193.3029,1.000829,2.995236,2000,16.0,2.0
# From MPEC 2023-XP6
C/2021 Y1 (ATLAS),h,04/30.7358/2023,77.1923,244.7679,245.8285,1.001049,2.032492,2000,7.0,4.0
# From MPEC 2022-YN2
C/2022 A1 (Sarneczky),e,116.5267,285.5132,201.2344,349.8857,0.0001506,0.99641660,0.0000,01/31.0717/2022,2000,g 18.0,4.0
# From MPEC 2023-Y97
C/2022 A2 (PANSTARRS),h,02/18.2580/2023,108.1328,171.5834,88.3705,1.000356,1.735401,2000,9.5,4.0
# From MPEC 2023-Y97
C/2022 A3 (Lemmon-ATLAS),e,88.3413,325.4766,234.8494,870.0781,0.0000384,0.99574344,0.0000,09/28.8635/2023,2000,g  8.0,4.0
# From MPEC 2022-K19
P/2022 B1 (Wierzchos),e,10.9898,325.4435,148.8608,5.466820,0.0771084,0.65329443,51.9346,12/31.0/2023,2000,g 16.5,4.0
# From MPEC 2022-YB4
A/2022 B3,e,132.0529,286.1860,150.6956,751.6633,0.0000478,0.99507783,0.0000,01/17.3510/2022,2000,g 16.5,2.0
# From MPEC 2022-GA9
C/2022 B4 (Bok),e,20.0455,340.6179,152.9430,382.3101,0.0001319,0.99639641,0.0000,01/29.9965/2022,2000,g 21.0,4.0
# From MPEC 2023-J29
P/2022 BV9 (Lemmon),e,11.9308,337.3081,16.2997,4.362699,0.1081611,0.23441741,125.7977,12/31.0/2023,2000,g  9.5,4.0
# From MPEC 2023-J29
P/2022 C1 (PANSTARRS),e,4.7622,113.1232,9.3548,7.225959,0.0507412,0.44860085,39.9060,12/31.0/2023,2000,g 12.0,4.0
# From MPEC 2023-VM5
P/2022 C2 (PANSTARRS),e,9.9819,135.2609,89.2388,6.038153,0.0664275,0.44193254,33.9996,12/31.0/2023,2000,g 12.5,4.0
# From MPEC 2023-UR6
P/2022 C3 (PANSTARRS),e,12.8191,139.0432,93.8936,9.627033,0.0329963,0.54569134,18.0912,12/31.0/2023,2000,g 11.5,4.0
# From MPEC 2022-K19
P/2022 D1 (PANSTARRS),e,44.0780,47.9586,88.6640,7.402916,0.0489328,0.54745137,41.8320,12/31.0/2023,2000,g 12.5,4.0
# From MPEC 2022-K19
C/2022 D2 (Kowalski),e,22.6602,312.4267,177.7939,371.2534,0.0001378,0.99581492,0.0000,03/27.6547/2022,2000,g 17.0,4.0
# From MPEC 2023-Y97
C/2022 E2 (ATLAS),h,09/14.0695/2024,137.1257,125.3703,41.7063,1.000732,3.666525,2000,5.0,4.0
# From MPEC 2023-Y97
C/2022 E3 (ZTF),h,01/12.7528/2023,109.1683,302.5534,145.8121,1.000139,1.112350,2000,7.5,4.0
# From MPEC 2023-R20
C/2022 F1 (ATLAS),e,57.9792,350.6470,278.2893,4687,0.0000031,0.99872522,0.0000,08/05.2264/2022,2000,g  7.0,4.0
# From MPEC 2022-QD9
C/2022 F2 (NEOWISE),e,97.3123,58.7842,200.6210,24.03978,0.0083620,0.93394550,5.4157,12/31.0/2023,2000,g 14.5,4.0
# From MPEC 2023-J95
C/2022 H1 (PANSTARRS),e,49.8370,6.3404,246.1506,726.7057,0.0000503,0.98940869,0.0000,01/17.1414/2024,2000,g  6.0,4.0
# From MPEC 2022-VC5
C/2022 J1 (Maury-Attard),e,105.9491,280.7569,305.6656,47.62421,0.0029989,0.96632049,2.0390,12/31.0/2023,2000,g 14.9,4.0
# From MPEC 2023-M14
C/2022 J2 (Bok),e,149.1356,252.6409,133.0840,91.61702,0.0011239,0.98007252,0.0000,10/27.0379/2022,2000,g  9.0,4.0
# From MPEC 2023-Y97
C/2022 JK5 (PANSTARRS),e,16.8315,59.6475,247.1951,43.44041,0.0034424,0.93813607,0.8471,12/31.0/2023,2000,g 11.0,4.0
# From MPEC 2022-ST7
C/2022 K1 (Leonard),h,12/17.3611/2021,41.9634,136.3331,142.6462,1.002182,3.989039,2000,11.0,4.0
# From MPEC 2023-CD7
C/2022 L1 (Catalina),e,123.4548,300.0326,59.8429,514.5177,0.0000845,0.99690750,0.0000,09/28.2203/2022,2000,g 15.8,4.0
